STARLINK-4726           
1 53802U 22111AF  25332.11298735 -.00002193  00000+0 -11972-3 0  9995
2 53802  53.2176 359.9833 0000961  88.4004 271.7098 15.08846659178488
STARLINK-4727           
1 53803U 22111AG  25332.19350059  .00001419  00000+0  10721-3 0  9991
2 53803  53.2178 344.8015 0001306  84.1137 276.0003 15.08838896178703
STARLINK-4729           
1 53804U 22111AH  25331.77396233  .00003285  00000+0  22428-3 0  9999
2 53804  53.2177 356.4230 0001172  84.3704 275.7422 15.08861026178504
STARLINK-4763           
1 53805U 22111AJ  25332.06935269 -.00002577  00000+0 -14391-3 0  9996
2 53805  53.2186 345.4447 0001219  88.0106 272.1025 15.08835244178684
STARLINK-4768           
1 53806U 22111AK  25331.77763554  .00000299  00000+0  36854-4 0  9996
2 53806  53.2190 346.4659 0001494  83.8243 276.2919 15.08844759178640
STARLINK-4738           
1 53819U 22114B   25332.21233985  .00000235  00000+0  32863-4 0  9999
2 53819  53.2177  39.5397 0001240 112.0840 248.0284 15.08836614177513
STARLINK-4758           
1 53820U 22114C   25331.91430544  .00000780  00000+0  67089-4 0  9990
2 53820  53.2184  41.2300 0000934  81.5304 278.5794 15.08839028177461
STARLINK-4748           
1 53823U 22114F   25332.08585328  .00001001  00000+0  80982-4 0  9997
2 53823  53.2179 355.2233 0001414  80.9095 279.2057 15.08835071178123
STARLINK-4757           
1 53824U 22114G   25331.90316693 -.00000204  00000+0  52771-5 0  9996
2 53824  53.2190  40.4650 0001252  90.6671 269.4464 15.08839496177386
STARLINK-4751           
1 53825U 22114H   25331.90693683  .00000438  00000+0  45601-4 0  9995
2 53825  53.2185  41.1832 0001148  90.5257 269.5866 15.08836469177467
STARLINK-4756           
1 53826U 22114J   25331.88850858 -.00000772  00000+0 -30399-4 0  9993
2 53826  53.2191  41.0700 0001282  83.0375 277.0763 15.08843053177462
STARLINK-4764           
1 53827U 22114K   25332.16452491  .00000995  00000+0  80569-4 0  9996
2 53827  53.2173  39.9482 0001040 100.1693 259.9416 15.08834730177503
STARLINK-4760           
1 53828U 22114L   25331.48739080 -.00000811  00000+0 -32906-4 0  9994
2 53828  53.2178  42.8288 0001235  89.0623 271.0511 15.08830174177408
STARLINK-4759           
1 53829U 22114M   25331.89588240  .00000546  00000+0  52399-4 0  9991
2 53829  53.2186  41.1136 0001139  78.0480 282.0640 15.08837450177469
STARLINK-4761           
1 53830U 22114N   25332.20863605  .00012012  00000+0  77089-3 0  9993
2 53830  53.2163  39.5123 0001326  82.8344 277.2799 15.08868530177513
STARLINK-4649           
1 53831U 22114P   25331.49478004 -.00003337  00000+0 -19183-3 0  9992
2 53831  53.2178  42.8763 0001166  77.7149 282.3974 15.08806872177406
STARLINK-4747           
1 53832U 22114Q   25332.20128699  .00001199  00000+0  93403-4 0  9995
2 53832  53.2164  39.4682 0001381  80.8049 279.3100 15.08844625177514
