[{"OBJECT_NAME":"STARLINK-4726","OBJECT_ID":"2022-111AF","EPOCH":"2025-11-28T02:42:42.107040","MEAN_MOTION":15.08846659,"ECCENTRICITY":9.61e-5,"INCLINATION":53.2176,"RA_OF_ASC_NODE":359.9833,"ARG_OF_PERICENTER":88.4004,"MEAN_ANOMALY":271.7098,"EPHEMERIS_TYPE":0,"CLASSIFICATION_TYPE":"U","NORAD_CAT_ID":53802,"ELEMENT_SET_NO":999,"REV_AT_EPOCH":17848,"BSTAR":-0.00011972,"MEAN_MOTION_DOT":-2.193e-5,"MEAN_MOTION_DDOT":0},{"OBJECT_NAME":"STARLINK-4727","OBJECT_ID":"2022-111AG","EPOCH":"2025-11-28T04:38:38.450976","MEAN_MOTION":15.08838896,"ECCENTRICITY":0.0001306,"INCLINATION":53.2178,"RA_OF_ASC_NODE":344.8015,"ARG_OF_PERICENTER":84.1137,"MEAN_ANOMALY":276.0003,"EPHEMERIS_TYPE":0,"CLASSIFICATION_TYPE":"U","NORAD_CAT_ID":53803,"ELEMENT_SET_NO":999,"REV_AT_EPOCH":17870,"BSTAR":0.00010721,"MEAN_MOTION_DOT":1.419e-5,"MEAN_MOTION_DDOT":0},{"OBJECT_NAME":"STARLINK-4729","OBJECT_ID":"2022-111AH","EPOCH":"2025-11-27T18:34:30.345312","MEAN_MOTION":15.08861026,"ECCENTRICITY":0.00011725,"INCLINATION":53.2177,"RA_OF_ASC_NODE":356.423,"ARG_OF_PERICENTER":84.3704,"MEAN_ANOMALY":275.7422,"EPHEMERIS_TYPE":0,"CLASSIFICATION_TYPE":"U","NORAD_CAT_ID":53804,"ELEMENT_SET_NO":999,"REV_AT_EPOCH":17850,"BSTAR":0.00022427683,"MEAN_MOTION_DOT":3.285e-5,"MEAN_MOTION_DDOT":0},{"OBJECT_NAME":"STARLINK-4763","OBJECT_ID":"2022-111AJ","EPOCH":"2025-11-28T01:39:52.072416","MEAN_MOTION":15.08835244,"ECCENTRICITY":0.0001219,"INCLINATION":53.2186,"RA_OF_ASC_NODE":345.4447,"ARG_OF_PERICENTER":88.0106,"MEAN_ANOMALY":272.1025,"EPHEMERIS_TYPE":0,"CLASSIFICATION_TYPE":"U","NORAD_CAT_ID":53805,"ELEMENT_SET_NO":999,"REV_AT_EPOCH":17868,"BSTAR":-0.00014391,"MEAN_MOTION_DOT":-2.577e-5,"MEAN_MOTION_DDOT":0},{"OBJECT_NAME":"STARLINK-4768","OBJECT_ID":"2022-111AK","EPOCH":"2025-11-27T18:39:47.710656","MEAN_MOTION":15.08844759,"ECCENTRICITY":0.00014948,"INCLINATION":53.219,"RA_OF_ASC_NODE":346.4659,"ARG_OF_PERICENTER":83.8243,"MEAN_ANOMALY":276.2919,"EPHEMERIS_TYPE":0,"CLASSIFICATION_TYPE":"U","NORAD_CAT_ID":53806,"ELEMENT_SET_NO":999,"REV_AT_EPOCH":17864,"BSTAR":3.6854155e-5,"MEAN_MOTION_DOT":2.99e-6,"MEAN_MOTION_DDOT":0},{"OBJECT_NAME":"STARLINK-4738","OBJECT_ID":"2022-114B","EPOCH":"2025-11-28T05:05:46.163040","MEAN_MOTION":15.08836614,"ECCENTRICITY":0.000124,"INCLINATION":53.2177,"RA_OF_ASC_NODE":39.5397,"ARG_OF_PERICENTER":112.084,"MEAN_ANOMALY":248.0284,"EPHEMERIS_TYPE":0,"CLASSIFICATION_TYPE":"U","NORAD_CAT_ID":53819,"ELEMENT_SET_NO":999,"REV_AT_EPOCH":17751,"BSTAR":3.2863e-5,"MEAN_MOTION_DOT":2.35e-6,"MEAN_MOTION_DDOT":0},{"OBJECT_NAME":"STARLINK-4758","OBJECT_ID":"2022-114C","EPOCH":"2025-11-27T21:56:35.990016","MEAN_MOTION":15.08839028,"ECCENTRICITY":9.34e-5,"INCLINATION":53.2184,"RA_OF_ASC_NODE":41.23,"ARG_OF_PERICENTER":81.5304,"MEAN_ANOMALY":278.5794,"EPHEMERIS_TYPE":0,"CLASSIFICATION_TYPE":"U","NORAD_CAT_ID":53820,"ELEMENT_SET_NO":999,"REV_AT_EPOCH":17746,"BSTAR":6.7089e-5,"MEAN_MOTION_DOT":7.8e-6,"MEAN_MOTION_DDOT":0},{"OBJECT_NAME":"STARLINK-4748","OBJECT_ID":"2022-114F","EPOCH":"2025-11-28T02:03:37.723392","MEAN_MOTION":15.08835071,"ECCENTRICITY":0.0001414,"INCLINATION":53.2179,"RA_OF_ASC_NODE":355.2233,"ARG_OF_PERICENTER":80.9095,"MEAN_ANOMALY":279.2057,"EPHEMERIS_TYPE":0,"CLASSIFICATION_TYPE":"U","NORAD_CAT_ID":53823,"ELEMENT_SET_NO":999,"REV_AT_EPOCH":17812,"BSTAR":8.0982e-5,"MEAN_MOTION_DOT":1.001e-5,"MEAN_MOTION_DDOT":0},{"OBJECT_NAME":"STARLINK-4757","OBJECT_ID":"2022-114G","EPOCH":"2025-11-27T21:40:33.622752","MEAN_MOTION":15.08839496,"ECCENTRICITY":0.0001252,"INCLINATION":53.219,"RA_OF_ASC_NODE":40.465,"ARG_OF_PERICENTER":90.6671,"MEAN_ANOMALY":269.4464,"EPHEMERIS_TYPE":0,"CLASSIFICATION_TYPE":"U","NORAD_CAT_ID":53824,"ELEMENT_SET_NO":999,"REV_AT_EPOCH":17738,"BSTAR":5.2771e-6,"MEAN_MOTION_DOT":-2.04e-6,"MEAN_MOTION_DDOT":0},{"OBJECT_NAME":"STARLINK-4751","OBJECT_ID":"2022-114H","EPOCH":"2025-11-27T21:45:59.342112","MEAN_MOTION":15.08836469,"ECCENTRICITY":0.0001148,"INCLINATION":53.2185,"RA_OF_ASC_NODE":41.1832,"ARG_OF_PERICENTER":90.5257,"MEAN_ANOMALY":269.5866,"EPHEMERIS_TYPE":0,"CLASSIFICATION_TYPE":"U","NORAD_CAT_ID":53825,"ELEMENT_SET_NO":999,"REV_AT_EPOCH":17746,"BSTAR":4.5601e-5,"MEAN_MOTION_DOT":4.38e-6,"MEAN_MOTION_DDOT":0},{"OBJECT_NAME":"STARLINK-4756","OBJECT_ID":"2022-114J","EPOCH":"2025-11-27T21:19:27.141312","MEAN_MOTION":15.08843053,"ECCENTRICITY":0.0001282,"INCLINATION":53.2191,"RA_OF_ASC_NODE":41.07,"ARG_OF_PERICENTER":83.0375,"MEAN_ANOMALY":277.0763,"EPHEMERIS_TYPE":0,"CLASSIFICATION_TYPE":"U","NORAD_CAT_ID":53826,"ELEMENT_SET_NO":999,"REV_AT_EPOCH":17746,"BSTAR":-3.0399e-5,"MEAN_MOTION_DOT":-7.72e-6,"MEAN_MOTION_DDOT":0},{"OBJECT_NAME":"STARLINK-4764","OBJECT_ID":"2022-114K","EPOCH":"2025-11-28T03:56:54.952224","MEAN_MOTION":15.0883473,"ECCENTRICITY":0.000104,"INCLINATION":53.2173,"RA_OF_ASC_NODE":39.9482,"ARG_OF_PERICENTER":100.1693,"MEAN_ANOMALY":259.9416,"EPHEMERIS_TYPE":0,"CLASSIFICATION_TYPE":"U","NORAD_CAT_ID":53827,"ELEMENT_SET_NO":999,"REV_AT_EPOCH":17750,"BSTAR":8.0569e-5,"MEAN_MOTION_DOT":9.95e-6,"MEAN_MOTION_DDOT":0},{"OBJECT_NAME":"STARLINK-4760","OBJECT_ID":"2022-114L","EPOCH":"2025-11-27T11:41:50.565120","MEAN_MOTION":15.08830174,"ECCENTRICITY":0.00012352,"INCLINATION":53.2178,"RA_OF_ASC_NODE":42.8288,"ARG_OF_PERICENTER":89.0623,"MEAN_ANOMALY":271.0511,"EPHEMERIS_TYPE":0,"CLASSIFICATION_TYPE":"U","NORAD_CAT_ID":53828,"ELEMENT_SET_NO":999,"REV_AT_EPOCH":17740,"BSTAR":-3.2905833e-5,"MEAN_MOTION_DOT":-8.11e-6,"MEAN_MOTION_DDOT":0},{"OBJECT_NAME":"STARLINK-4759","OBJECT_ID":"2022-114M","EPOCH":"2025-11-27T21:30:04.239360","MEAN_MOTION":15.0883745,"ECCENTRICITY":0.0001139,"INCLINATION":53.2186,"RA_OF_ASC_NODE":41.1136,"ARG_OF_PERICENTER":78.048,"MEAN_ANOMALY":282.064,"EPHEMERIS_TYPE":0,"CLASSIFICATION_TYPE":"U","NORAD_CAT_ID":53829,"ELEMENT_SET_NO":999,"REV_AT_EPOCH":17746,"BSTAR":5.2399e-5,"MEAN_MOTION_DOT":5.46e-6,"MEAN_MOTION_DDOT":0},{"OBJECT_NAME":"STARLINK-4761","OBJECT_ID":"2022-114N","EPOCH":"2025-11-28T05:00:26.154720","MEAN_MOTION":15.0886853,"ECCENTRICITY":0.0001326,"INCLINATION":53.2163,"RA_OF_ASC_NODE":39.5123,"ARG_OF_PERICENTER":82.8344,"MEAN_ANOMALY":277.2799,"EPHEMERIS_TYPE":0,"CLASSIFICATION_TYPE":"U","NORAD_CAT_ID":53830,"ELEMENT_SET_NO":999,"REV_AT_EPOCH":17751,"BSTAR":0.00077089,"MEAN_MOTION_DOT":0.00012012,"MEAN_MOTION_DDOT":0},{"OBJECT_NAME":"STARLINK-4649","OBJECT_ID":"2022-114P","EPOCH":"2025-11-27T11:52:28.995456","MEAN_MOTION":15.08806872,"ECCENTRICITY":0.00011668,"INCLINATION":53.2178,"RA_OF_ASC_NODE":42.8763,"ARG_OF_PERICENTER":77.7149,"MEAN_ANOMALY":282.3974,"EPHEMERIS_TYPE":0,"CLASSIFICATION_TYPE":"U","NORAD_CAT_ID":53831,"ELEMENT_SET_NO":999,"REV_AT_EPOCH":17740,"BSTAR":-0.0001918332,"MEAN_MOTION_DOT":-3.337e-5,"MEAN_MOTION_DDOT":0},{"OBJECT_NAME":"STARLINK-4747","OBJECT_ID":"2022-114Q","EPOCH":"2025-11-28T04:49:51.195936","MEAN_MOTION":15.08844625,"ECCENTRICITY":0.0001381,"INCLINATION":53.2164,"RA_OF_ASC_NODE":39.4682,"ARG_OF_PERICENTER":80.8049,"MEAN_ANOMALY":279.31,"EPHEMERIS_TYPE":0,"CLASSIFICATION_TYPE":"U","NORAD_CAT_ID":53832,"ELEMENT_SET_NO":999,"REV_AT_EPOCH":17751,"BSTAR":9.3403e-5,"MEAN_MOTION_DOT":1.199e-5,"MEAN_MOTION_DDOT":0}]
